{
  "type": "FeatureCollection",
  "features": [
    {
      "type": "Feature",
      "properties": {
        "norad_id": 35456,
        "name": "COSMOS 2251 DEB",
        "group": "cosmos-2251-debris",
        "lat": 55.77946393217944,
        "lon": 136.82667798398225,
        "alt_km": 663.5708784463413,
        "timestamp": "2025-12-15T15:53:20.244241+00:00",
        "meta_object_name": "COSMOS 2251 DEB",
        "meta_object_id": "1993-036ALA",
        "meta_epoch": "2025-12-14T15:06:45.279936",
        "meta_mean_motion": 14.69470866,
        "meta_eccentricity": 0.00660928,
        "meta_inclination": 73.9499,
        "meta_ra_of_asc_node": 113.7944,
        "meta_arg_of_pericenter": 323.212,
        "meta_mean_anomaly": 36.4523,
        "meta_ephemeris_type": 0,
        "meta_classification_type": "U",
        "meta_norad_cat_id": 35456,
        "meta_element_set_no": 999,
        "meta_rev_at_epoch": 65903,
        "meta_bstar": 0.0014662865,
        "meta_mean_motion_dot": 8.962e-05,
        "meta_mean_motion_ddot": 0,
        "tle_line1": "1 35456U 93036ALA 25348.62969074  .00008962  00000+0  14663-2 0  9995",
        "tle_line2": "2 35456  73.9499 113.7944 0066092 323.2120  36.4523 14.69470866659038"
      },
      "geometry": {
        "type": "Point",
        "coordinates": [
          136.82667798398225,
          55.77946393217944
        ]
      }
    },
    {
      "type": "Feature",
      "properties": {
        "norad_id": 35459,
        "name": "COSMOS 2251 DEB",
        "group": "cosmos-2251-debris",
        "lat": 68.45711812873436,
        "lon": -45.291659677922524,
        "alt_km": 749.2835937931914,
        "timestamp": "2025-12-15T15:53:20.244250+00:00",
        "meta_object_name": "COSMOS 2251 DEB",
        "meta_object_id": "1993-036ALD",
        "meta_epoch": "2025-12-13T06:36:57.783456",
        "meta_mean_motion": 14.37463066,
        "meta_eccentricity": 0.00162707,
        "meta_inclination": 73.8693,
        "meta_ra_of_asc_node": 186.288,
        "meta_arg_of_pericenter": 133.9432,
        "meta_mean_anomaly": 226.3067,
        "meta_ephemeris_type": 0,
        "meta_classification_type": "U",
        "meta_norad_cat_id": 35459,
        "meta_element_set_no": 999,
        "meta_rev_at_epoch": 58369,
        "meta_bstar": 0.00036578266,
        "meta_mean_motion_dot": 1.069e-05,
        "meta_mean_motion_ddot": 0,
        "tle_line1": "1 35459U 93036ALD 25347.27566879  .00001069  00000+0  36578-3 0  9995",
        "tle_line2": "2 35459  73.8693 186.2880 0016270 133.9432 226.3067 14.37463066583695"
      },
      "geometry": {
        "type": "Point",
        "coordinates": [
          -45.291659677922524,
          68.45711812873436
        ]
      }
    },
    {
      "type": "Feature",
      "properties": {
        "norad_id": 35462,
        "name": "COSMOS 2251 DEB",
        "group": "cosmos-2251-debris",
        "lat": 72.73377940242005,
        "lon": -29.56055967537668,
        "alt_km": 837.7771567287864,
        "timestamp": "2025-12-15T15:53:20.244259+00:00",
        "meta_object_name": "COSMOS 2251 DEB",
        "meta_object_id": "1993-036ALG",
        "meta_epoch": "2025-12-14T10:56:33.653184",
        "meta_mean_motion": 14.29314779,
        "meta_eccentricity": 0.00867737,
        "meta_inclination": 74.0364,
        "meta_ra_of_asc_node": 265.5668,
        "meta_arg_of_pericenter": 300.3316,
        "meta_mean_anomaly": 58.9271,
        "meta_ephemeris_type": 0,
        "meta_classification_type": "U",
        "meta_norad_cat_id": 35462,
        "meta_element_set_no": 999,
        "meta_rev_at_epoch": 66405,
        "meta_bstar": 0.0017596201,
        "meta_mean_motion_dot": 4.641e-05,
        "meta_mean_motion_ddot": 0,
        "tle_line1": "1 35462U 93036ALG 25348.45594506  .00004641  00000+0  17596-2 0  9995",
        "tle_line2": "2 35462  74.0364 265.5668 0086773 300.3316  58.9271 14.29314779664051"
      },
      "geometry": {
        "type": "Point",
        "coordinates": [
          -29.56055967537668,
          72.73377940242005
        ]
      }
    },
    {
      "type": "Feature",
      "properties": {
        "norad_id": 35465,
        "name": "COSMOS 2251 DEB",
        "group": "cosmos-2251-debris",
        "lat": -57.215420529817685,
        "lon": 165.11866168870648,
        "alt_km": 722.7324878593272,
        "timestamp": "2025-12-15T15:53:20.244269+00:00",
        "meta_object_name": "COSMOS 2251 DEB",
        "meta_object_id": "1993-036ALK",
        "meta_epoch": "2025-12-14T06:55:15.434976",
        "meta_mean_motion": 14.44324437,
        "meta_eccentricity": 0.00641475,
        "meta_inclination": 73.9983,
        "meta_ra_of_asc_node": 194.1379,
        "meta_arg_of_pericenter": 354.0798,
        "meta_mean_anomaly": 5.9592,
        "meta_ephemeris_type": 0,
        "meta_classification_type": "U",
        "meta_norad_cat_id": 35465,
        "meta_element_set_no": 999,
        "meta_rev_at_epoch": 87264,
        "meta_bstar": 0.00045193866,
        "meta_mean_motion_dot": 1.567e-05,
        "meta_mean_motion_ddot": 0,
        "tle_line1": "1 35465U 93036ALK 25348.28837309  .00001567  00000+0  45194-3 0  9990",
        "tle_line2": "2 35465  73.9983 194.1379 0064147 354.0798   5.9592 14.44324437872649"
      },
      "geometry": {
        "type": "Point",
        "coordinates": [
          165.11866168870648,
          -57.215420529817685
        ]
      }
    },
    {
      "type": "Feature",
      "properties": {
        "norad_id": 35469,
        "name": "COSMOS 2251 DEB",
        "group": "cosmos-2251-debris",
        "lat": -13.483862975399473,
        "lon": -157.6815618331298,
        "alt_km": 679.3653862481888,
        "timestamp": "2025-12-15T15:53:20.244278+00:00",
        "meta_object_name": "COSMOS 2251 DEB",
        "meta_object_id": "1993-036ALP",
        "meta_epoch": "2025-12-14T19:07:35.904576",
        "meta_mean_motion": 14.49821645,
        "meta_eccentricity": 0.00768496,
        "meta_inclination": 74.0173,
        "meta_ra_of_asc_node": 20.0032,
        "meta_arg_of_pericenter": 174.8601,
        "meta_mean_anomaly": 185.3367,
        "meta_ephemeris_type": 0,
        "meta_classification_type": "U",
        "meta_norad_cat_id": 35469,
        "meta_element_set_no": 999,
        "meta_rev_at_epoch": 88141,
        "meta_bstar": 0.00011773549,
        "meta_mean_motion_dot": 4.42e-06,
        "meta_mean_motion_ddot": 0,
        "tle_line1": "1 35469U 93036ALP 25348.79694334  .00000442  00000+0  11774-3 0  9997",
        "tle_line2": "2 35469  74.0173  20.0032 0076849 174.8601 185.3367 14.49821645881418"
      },
      "geometry": {
        "type": "Point",
        "coordinates": [
          -157.6815618331298,
          -13.483862975399473
        ]
      }
    },
    {
      "type": "Feature",
      "properties": {
        "norad_id": 35475,
        "name": "COSMOS 2251 DEB",
        "group": "cosmos-2251-debris",
        "lat": -69.2644106583845,
        "lon": 29.14568155275736,
        "alt_km": 655.4072866211345,
        "timestamp": "2025-12-15T15:53:20.244287+00:00",
        "meta_object_name": "COSMOS 2251 DEB",
        "meta_object_id": "1993-036ALV",
        "meta_epoch": "2025-12-14T17:29:18.389184",
        "meta_mean_motion": 14.69783926,
        "meta_eccentricity": 0.00205186,
        "meta_inclination": 74.0212,
        "meta_ra_of_asc_node": 161.7662,
        "meta_arg_of_pericenter": 234.7463,
        "meta_mean_anomaly": 125.1788,
        "meta_ephemeris_type": 0,
        "meta_classification_type": "U",
        "meta_norad_cat_id": 35475,
        "meta_element_set_no": 999,
        "meta_rev_at_epoch": 65646,
        "meta_bstar": 0.0015733167,
        "meta_mean_motion_dot": 9.401e-05,
        "meta_mean_motion_ddot": 0,
        "tle_line1": "1 35475U 93036ALV 25348.72868506  .00009401  00000+0  15733-2 0  9993",
        "tle_line2": "2 35475  74.0212 161.7662 0020518 234.7463 125.1788 14.69783926656460"
      },
      "geometry": {
        "type": "Point",
        "coordinates": [
          29.14568155275736,
          -69.2644106583845
        ]
      }
    },
    {
      "type": "Feature",
      "properties": {
        "norad_id": 35476,
        "name": "COSMOS 2251 DEB",
        "group": "cosmos-2251-debris",
        "lat": 14.01531404351752,
        "lon": -128.9345359465403,
        "alt_km": 651.3021532602424,
        "timestamp": "2025-12-15T15:53:20.244296+00:00",
        "meta_object_name": "COSMOS 2251 DEB",
        "meta_object_id": "1993-036ALW",
        "meta_epoch": "2025-12-14T08:46:26.729760",
        "meta_mean_motion": 14.75728998,
        "meta_eccentricity": 0.00177068,
        "meta_inclination": 73.9788,
        "meta_ra_of_asc_node": 57.7227,
        "meta_arg_of_pericenter": 38.6252,
        "meta_mean_anomaly": 81.7353,
        "meta_ephemeris_type": 0,
        "meta_classification_type": "U",
        "meta_norad_cat_id": 35476,
        "meta_element_set_no": 999,
        "meta_rev_at_epoch": 87911,
        "meta_bstar": 0.001724896,
        "meta_mean_motion_dot": 0.00011821,
        "meta_mean_motion_ddot": 0,
        "tle_line1": "1 35476U 93036ALW 25348.36558715  .00011821  00000+0  17249-2 0  9995",
        "tle_line2": "2 35476  73.9788  57.7227 0017706  38.6252  81.7353 14.75728998879119"
      },
      "geometry": {
        "type": "Point",
        "coordinates": [
          -128.9345359465403,
          14.01531404351752
        ]
      }
    }
  ]
}